STARLINK-3179           
1 51141U 22005AP  26074.26597601  .00000133  00000+0  26439-4 0  9990
2 51141  53.2168 274.0924 0001491  87.2793 272.8370 15.08835759229584
STARLINK-3369           
1 51142U 22005AQ  26073.80053766  .00025077  00000+0  11827-2 0  9996
2 51142  53.2141 258.5387 0002855 198.6314 161.4579 15.19350360229752
STARLINK-3184           
1 51143U 22005AR  26073.85289015  .00000271  00000+0  35127-4 0  9990
2 51143  53.2166 285.9421 0001421  92.3824 267.7331 15.08841510229371
STARLINK-3185           
1 51144U 22005AS  26074.27061417  .00000495  00000+0  49196-4 0  9991
2 51144  53.2164 274.0787 0001339  87.1414 272.9731 15.08837495229581
STARLINK-3354           
1 51146U 22005AU  26073.88053328  .00003183  00000+0  21803-3 0  9992
2 51146  53.2172 275.8273 0001306  88.0583 272.0559 15.08828459229514
STARLINK-3352           
1 51147U 22005AV  26073.82850685  .00047491  00000+0  18740-2 0  9993
2 51147  53.1918 273.0851 0001147 160.6533 199.4509 15.25105785229559
STARLINK-3359           
1 51148U 22005AW  26073.86139702  .00026243  00000+0  16324-2 0  9996
2 51148  53.2160 286.0727 0001866 118.6520 241.4660 15.09471965229377
STARLINK-3360           
1 51149U 22005AX  26074.28806921  .00000138  00000+0  26759-4 0  9998
2 51149  53.2162 283.8061 0001223  84.8641 275.2491 15.08836376229446
STARLINK-3357           
1 51150U 22005AY  26073.82800738 -.00003895  00000+0 -22677-3 0  9998
2 51150  53.2164 275.6666 0001221  93.1223 266.9909 15.08842440229526
STARLINK-3364           
1 51152U 22005BA  26073.86756333  .00000408  00000+0  43718-4 0  9990
2 51152  53.2150 285.4918 0001394  93.0266 267.0886 15.08842041229386
STARLINK-3181           
1 51461U 22010F   26074.20157379  .00001086  00000+0  86326-4 0  9998
2 51461  53.2172 254.3769 0001446  86.7842 273.3315 15.08840100227658
STARLINK-3166           
1 51462U 22010G   26074.19884876  .00000552  00000+0  52759-4 0  9996
2 51462  53.2163 254.3961 0001048  89.9688 270.1424 15.08837871227651
STARLINK-3419           
1 51463U 22010H   26073.90717010  .00000157  00000+0  27950-4 0  9996
2 51463  53.2158 255.6990 0001321  99.9670 260.1472 15.08841372227303
STARLINK-3189           
1 51464U 22010J   26074.19053287 -.00000278  00000+0  61485-6 0  9996
2 51464  53.2164 254.4264 0001244  92.7717 267.3418 15.08836001228155
STARLINK-3401           
1 51465U 22010K   26074.18685086  .00000658  00000+0  59430-4 0  9990
2 51465  53.2169 254.4434 0001328  90.5601 269.5543 15.08840958228150
STARLINK-3178           
1 51467U 22010M   26074.23468055 -.00000510  00000+0 -13952-4 0  9991
2 51467  53.2176 254.2228 0000771 174.1949 185.9053 15.08839750227350
