[{"OBJECT_NAME":"STARLINK-3179","OBJECT_ID":"2022-005AP","EPOCH":"2026-03-15T06:23:00.327264","MEAN_MOTION":15.08835759,"ECCENTRICITY":0.00014917,"INCLINATION":53.2168,"RA_OF_ASC_NODE":274.0924,"ARG_OF_PERICENTER":87.2793,"MEAN_ANOMALY":272.837,"EPHEMERIS_TYPE":0,"CLASSIFICATION_TYPE":"U","NORAD_CAT_ID":51141,"ELEMENT_SET_NO":999,"REV_AT_EPOCH":22958,"BSTAR":2.6439353e-5,"MEAN_MOTION_DOT":1.33e-6,"MEAN_MOTION_DDOT":0},{"OBJECT_NAME":"STARLINK-3369","OBJECT_ID":"2022-005AQ","EPOCH":"2026-03-14T19:12:46.453824","MEAN_MOTION":15.1935036,"ECCENTRICITY":0.0002855,"INCLINATION":53.2141,"RA_OF_ASC_NODE":258.5387,"ARG_OF_PERICENTER":198.6314,"MEAN_ANOMALY":161.4579,"EPHEMERIS_TYPE":0,"CLASSIFICATION_TYPE":"U","NORAD_CAT_ID":51142,"ELEMENT_SET_NO":999,"REV_AT_EPOCH":22975,"BSTAR":0.0011826609,"MEAN_MOTION_DOT":0.00025077,"MEAN_MOTION_DDOT":0},{"OBJECT_NAME":"STARLINK-3184","OBJECT_ID":"2022-005AR","EPOCH":"2026-03-14T20:28:09.708960","MEAN_MOTION":15.0884151,"ECCENTRICITY":0.0001421,"INCLINATION":53.2166,"RA_OF_ASC_NODE":285.9421,"ARG_OF_PERICENTER":92.3824,"MEAN_ANOMALY":267.7331,"EPHEMERIS_TYPE":0,"CLASSIFICATION_TYPE":"U","NORAD_CAT_ID":51143,"ELEMENT_SET_NO":999,"REV_AT_EPOCH":22937,"BSTAR":3.5126893e-5,"MEAN_MOTION_DOT":2.71e-6,"MEAN_MOTION_DDOT":0},{"OBJECT_NAME":"STARLINK-3185","OBJECT_ID":"2022-005AS","EPOCH":"2026-03-15T06:29:41.064288","MEAN_MOTION":15.08837495,"ECCENTRICITY":0.00013393,"INCLINATION":53.2164,"RA_OF_ASC_NODE":274.0787,"ARG_OF_PERICENTER":87.1414,"MEAN_ANOMALY":272.9731,"EPHEMERIS_TYPE":0,"CLASSIFICATION_TYPE":"U","NORAD_CAT_ID":51144,"ELEMENT_SET_NO":999,"REV_AT_EPOCH":22958,"BSTAR":4.919568e-5,"MEAN_MOTION_DOT":4.95e-6,"MEAN_MOTION_DDOT":0},{"OBJECT_NAME":"STARLINK-3354","OBJECT_ID":"2022-005AU","EPOCH":"2026-03-14T21:07:58.075392","MEAN_MOTION":15.08828459,"ECCENTRICITY":0.00013067,"INCLINATION":53.2172,"RA_OF_ASC_NODE":275.8273,"ARG_OF_PERICENTER":88.0583,"MEAN_ANOMALY":272.0559,"EPHEMERIS_TYPE":0,"CLASSIFICATION_TYPE":"U","NORAD_CAT_ID":51146,"ELEMENT_SET_NO":999,"REV_AT_EPOCH":22951,"BSTAR":0.00021802959,"MEAN_MOTION_DOT":3.183e-5,"MEAN_MOTION_DDOT":0},{"OBJECT_NAME":"STARLINK-3352","OBJECT_ID":"2022-005AV","EPOCH":"2026-03-14T19:53:02.991840","MEAN_MOTION":15.25105785,"ECCENTRICITY":0.00011476,"INCLINATION":53.1918,"RA_OF_ASC_NODE":273.0851,"ARG_OF_PERICENTER":160.6533,"MEAN_ANOMALY":199.4509,"EPHEMERIS_TYPE":0,"CLASSIFICATION_TYPE":"U","NORAD_CAT_ID":51147,"ELEMENT_SET_NO":999,"REV_AT_EPOCH":22955,"BSTAR":0.001874038,"MEAN_MOTION_DOT":0.00047491,"MEAN_MOTION_DDOT":0},{"OBJECT_NAME":"STARLINK-3359","OBJECT_ID":"2022-005AW","EPOCH":"2026-03-14T20:40:24.702528","MEAN_MOTION":15.09471965,"ECCENTRICITY":0.00018661,"INCLINATION":53.216,"RA_OF_ASC_NODE":286.0727,"ARG_OF_PERICENTER":118.652,"MEAN_ANOMALY":241.466,"EPHEMERIS_TYPE":0,"CLASSIFICATION_TYPE":"U","NORAD_CAT_ID":51148,"ELEMENT_SET_NO":999,"REV_AT_EPOCH":22937,"BSTAR":0.0016324031,"MEAN_MOTION_DOT":0.00026243,"MEAN_MOTION_DDOT":0},{"OBJECT_NAME":"STARLINK-3360","OBJECT_ID":"2022-005AX","EPOCH":"2026-03-15T06:54:49.179744","MEAN_MOTION":15.08836376,"ECCENTRICITY":0.00012232,"INCLINATION":53.2162,"RA_OF_ASC_NODE":283.8061,"ARG_OF_PERICENTER":84.8641,"MEAN_ANOMALY":275.2491,"EPHEMERIS_TYPE":0,"CLASSIFICATION_TYPE":"U","NORAD_CAT_ID":51149,"ELEMENT_SET_NO":999,"REV_AT_EPOCH":22944,"BSTAR":2.6758627e-5,"MEAN_MOTION_DOT":1.38e-6,"MEAN_MOTION_DDOT":0},{"OBJECT_NAME":"STARLINK-3357","OBJECT_ID":"2022-005AY","EPOCH":"2026-03-14T19:52:19.837632","MEAN_MOTION":15.0884244,"ECCENTRICITY":0.00012218,"INCLINATION":53.2164,"RA_OF_ASC_NODE":275.6666,"ARG_OF_PERICENTER":93.1223,"MEAN_ANOMALY":266.9909,"EPHEMERIS_TYPE":0,"CLASSIFICATION_TYPE":"U","NORAD_CAT_ID":51150,"ELEMENT_SET_NO":999,"REV_AT_EPOCH":22952,"BSTAR":-0.00022677259,"MEAN_MOTION_DOT":-3.895e-5,"MEAN_MOTION_DDOT":0},{"OBJECT_NAME":"STARLINK-3364","OBJECT_ID":"2022-005BA","EPOCH":"2026-03-14T20:49:17.471712","MEAN_MOTION":15.08842041,"ECCENTRICITY":0.00013941,"INCLINATION":53.215,"RA_OF_ASC_NODE":285.4918,"ARG_OF_PERICENTER":93.0266,"MEAN_ANOMALY":267.0886,"EPHEMERIS_TYPE":0,"CLASSIFICATION_TYPE":"U","NORAD_CAT_ID":51152,"ELEMENT_SET_NO":999,"REV_AT_EPOCH":22938,"BSTAR":4.371756e-5,"MEAN_MOTION_DOT":4.08e-6,"MEAN_MOTION_DDOT":0},{"OBJECT_NAME":"STARLINK-3181","OBJECT_ID":"2022-010F","EPOCH":"2026-03-15T04:50:15.975456","MEAN_MOTION":15.088401,"ECCENTRICITY":0.00014461,"INCLINATION":53.2172,"RA_OF_ASC_NODE":254.3769,"ARG_OF_PERICENTER":86.7842,"MEAN_ANOMALY":273.3315,"EPHEMERIS_TYPE":0,"CLASSIFICATION_TYPE":"U","NORAD_CAT_ID":51461,"ELEMENT_SET_NO":999,"REV_AT_EPOCH":22765,"BSTAR":8.6325753e-5,"MEAN_MOTION_DOT":1.086e-5,"MEAN_MOTION_DDOT":0},{"OBJECT_NAME":"STARLINK-3166","OBJECT_ID":"2022-010G","EPOCH":"2026-03-15T04:46:20.532864","MEAN_MOTION":15.08837871,"ECCENTRICITY":0.00010481,"INCLINATION":53.2163,"RA_OF_ASC_NODE":254.3961,"ARG_OF_PERICENTER":89.9688,"MEAN_ANOMALY":270.1424,"EPHEMERIS_TYPE":0,"CLASSIFICATION_TYPE":"U","NORAD_CAT_ID":51462,"ELEMENT_SET_NO":999,"REV_AT_EPOCH":22765,"BSTAR":5.2758974e-5,"MEAN_MOTION_DOT":5.52e-6,"MEAN_MOTION_DDOT":0},{"OBJECT_NAME":"STARLINK-3419","OBJECT_ID":"2022-010H","EPOCH":"2026-03-14T21:46:19.496640","MEAN_MOTION":15.08841372,"ECCENTRICITY":0.00013211,"INCLINATION":53.2158,"RA_OF_ASC_NODE":255.699,"ARG_OF_PERICENTER":99.967,"MEAN_ANOMALY":260.1472,"EPHEMERIS_TYPE":0,"CLASSIFICATION_TYPE":"U","NORAD_CAT_ID":51463,"ELEMENT_SET_NO":999,"REV_AT_EPOCH":22730,"BSTAR":2.7950228e-5,"MEAN_MOTION_DOT":1.57e-6,"MEAN_MOTION_DDOT":0},{"OBJECT_NAME":"STARLINK-3189","OBJECT_ID":"2022-010J","EPOCH":"2026-03-15T04:34:22.039968","MEAN_MOTION":15.08836001,"ECCENTRICITY":0.00012448,"INCLINATION":53.2164,"RA_OF_ASC_NODE":254.4264,"ARG_OF_PERICENTER":92.7717,"MEAN_ANOMALY":267.3418,"EPHEMERIS_TYPE":0,"CLASSIFICATION_TYPE":"U","NORAD_CAT_ID":51464,"ELEMENT_SET_NO":999,"REV_AT_EPOCH":22815,"BSTAR":6.14852e-7,"MEAN_MOTION_DOT":-2.78e-6,"MEAN_MOTION_DDOT":0},{"OBJECT_NAME":"STARLINK-3401","OBJECT_ID":"2022-010K","EPOCH":"2026-03-15T04:29:03.914304","MEAN_MOTION":15.08840958,"ECCENTRICITY":0.00013281,"INCLINATION":53.2169,"RA_OF_ASC_NODE":254.4434,"ARG_OF_PERICENTER":90.5601,"MEAN_ANOMALY":269.5543,"EPHEMERIS_TYPE":0,"CLASSIFICATION_TYPE":"U","NORAD_CAT_ID":51465,"ELEMENT_SET_NO":999,"REV_AT_EPOCH":22815,"BSTAR":5.9429759e-5,"MEAN_MOTION_DOT":6.58e-6,"MEAN_MOTION_DDOT":0},{"OBJECT_NAME":"STARLINK-3178","OBJECT_ID":"2022-010M","EPOCH":"2026-03-15T05:37:56.399520","MEAN_MOTION":15.0883975,"ECCENTRICITY":7.714e-5,"INCLINATION":53.2176,"RA_OF_ASC_NODE":254.2228,"ARG_OF_PERICENTER":174.1949,"MEAN_ANOMALY":185.9053,"EPHEMERIS_TYPE":0,"CLASSIFICATION_TYPE":"U","NORAD_CAT_ID":51467,"ELEMENT_SET_NO":999,"REV_AT_EPOCH":22735,"BSTAR":-1.3951601e-5,"MEAN_MOTION_DOT":-5.1e-6,"MEAN_MOTION_DDOT":0}]
